H1 CPF  1  DLR 2021 09 25 10  7682 technosat            
H2  1704205 6203    42829 2021 09 25 00 00 00 2021 10 02 00 00 00    60 1 1  0 0 0
H9
10 0 59483  50400.000000  0       -675461.006      -1536226.769       6758582.729
10 0 59483  50460.000000  0       -753010.482      -1091710.411       6835535.250
10 0 59483  50520.000000  0       -823478.392       -641952.341       6883514.714
10 0 59483  50580.000000  0       -886530.078       -188908.048       6902311.006
10 0 59483  50640.000000  0       -941879.098        265449.560       6891836.925
10 0 59483  50700.000000  0       -989288.536        719138.758       6852128.666
10 0 59483  50760.000000  0      -1028572.041       1170177.654       6783345.788
10 0 59483  50820.000000  0      -1059594.590       1616592.844       6685770.716
10 0 59483  50880.000000  0      -1082272.975       2056428.099       6559807.764
10 0 59483  50940.000000  0      -1096576.000       2487752.995       6405981.627
10 0 59483  51000.000000  0      -1102524.412       2908671.466       6224935.446
10 0 59483  51060.000000  0      -1100190.554       3317330.325       6017428.341
10 0 59483  51120.000000  0      -1089697.693       3711927.592       5784332.400
10 0 59483  51180.000000  0      -1071219.045       4090720.612       5526629.258
10 0 59483  51240.000000  0      -1044976.552       4452034.033       5245406.215
10 0 59483  51300.000000  0      -1011239.423       4794267.548       4941851.851
10 0 59483  51360.000000  0       -970322.372       5115903.381       4617251.122
10 0 59483  51420.000000  0       -922583.547       5415513.375       4272979.936
10 0 59483  51480.000000  0       -868422.196       5691765.564       3910499.363
10 0 59483  51540.000000  0       -808276.196       5943430.441       3531349.645
10 0 59483  51600.000000  0       -742619.375       6169386.992       3137143.715
10 0 59483  51660.000000  0       -671958.555       6368628.263       2729560.121
10 0 59483  51720.000000  0       -596830.312       6540266.116       2310335.524
10 0 59483  51780.000000  0       -517797.585       6683535.412       1881257.162
10 0 59483  51840.000000  0       -435446.159       6797797.745       1444154.984
10 0 59483  51900.000000  0       -350380.995       6882544.477       1000893.537
10 0 59483  51960.000000  0       -263222.449       6937399.150        553363.722
10 0 59483  52020.000000  0       -174602.409       6962119.294        103474.410
10 0 59483  52080.000000  0        -85160.346       6956597.597       -346856.112
10 0 59483  52140.000000  0          4460.692       6920862.297       -795708.759
10 0 59483  52200.000000  0         93618.057       6855076.831      -1241172.209
10 0 59483  52260.000000  0        181673.427       6759538.818      -1681351.353
10 0 59483  52320.000000  0        267996.685       6634678.418      -2114375.610
10 0 59483  52380.000000  0        351969.766       6481056.082      -2538407.084
10 0 59483  52440.000000  0        432990.414       6299359.687      -2951648.550
10 0 59483  52500.000000  0        510475.850       6090401.062      -3352351.216
10 0 59483  52560.000000  0        583866.290       5855111.916      -3738822.205
10 0 59483  52620.000000  0        652628.333       5594539.222      -4109431.719
10 0 59483  52680.000000  0        716258.167       5309840.085      -4462619.861
10 0 59483  52740.000000  0        774284.590       5002276.139      -4796903.071
10 0 59483  52800.000000  0        826271.834       4673207.512      -5110880.159
10 0 59483  52860.000000  0        871822.177       4324086.408      -5403237.938
10 0 59483  52920.000000  0        910578.297       3956450.340      -5672756.417
10 0 59483  52980.000000  0        942225.379       3571915.032      -5918313.596
10 0 59483  53040.000000  0        966492.989       3172167.017      -6138889.775
10 0 59483  53100.000000  0        983156.706       2758956.014      -6333571.367
10 0 59483  53160.000000  0        992039.484       2334087.126      -6501554.238
10 0 59483  53220.000000  0        993012.746       1899412.947      -6642146.612
10 0 59483  53280.000000  0        985997.216       1456825.506      -6754771.614
10 0 59483  53340.000000  0        970963.466       1008248.020      -6838969.301
10 0 59483  53400.000000  0        947932.231        555626.669      -6894398.207
10 0 59483  53460.000000  0        916974.459        100922.283      -6920836.507
10 0 59483  53520.000000  0        878211.049       -353898.042      -6918182.666
10 0 59483  53580.000000  0        831812.321       -806869.220      -6886455.591
10 0 59483  53640.000000  0        777997.268      -1256036.401      -6825794.403
10 0 59483  53700.000000  0        717032.543      -1699463.132      -6736457.765
10 0 59483  53760.000000  0        649231.195      -2135239.382      -6618822.850
10 0 59483  53820.000000  0        574951.179      -2561489.567      -6473383.982
10 0 59483  53880.000000  0        494593.533      -2976380.550      -6300750.752
10 0 59483  53940.000000  0        408600.341      -3378129.424      -6101645.574
10 0 59483  54000.000000  0        317452.493      -3765011.027      -5876900.848
10 0 59483  54060.000000  0        221667.254      -4135365.260      -5627455.752
10 0 59483  54120.000000  0        121795.584      -4487604.195      -5354352.636
10 0 59483  54180.000000  0         18419.253      -4820218.930      -5058732.976
10 0 59483  54240.000000  0        -87852.257      -5131786.150      -4741832.925
10 0 59483  54300.000000  0       -196385.017      -5420974.380      -4404978.441
10 0 59483  54360.000000  0       -306524.088      -5686549.864      -4049580.007
10 0 59483  54420.000000  0       -417597.095      -5927382.050      -3677126.969
10 0 59483  54480.000000  0       -528917.943      -6142448.623      -3289181.522
10 0 59483  54540.000000  0       -639790.651      -6330840.122      -2887372.382
10 0 59483  54600.000000  0       -749513.284      -6491764.113      -2473388.127
10 0 59483  54660.000000  0       -857381.950      -6624548.859      -2048970.174
10 0 59483  54720.000000  0       -962694.845      -6728646.414      -1615905.478
10 0 59483  54780.000000  0      -1064756.322      -6803635.153      -1176019.021
10 0 59483  54840.000000  0      -1162880.968      -6849221.735       -731166.069
10 0 59483  54900.000000  0      -1256397.651      -6865242.447       -283224.282
10 0 59483  54960.000000  0      -1344653.528      -6851663.966        165914.297
10 0 59483  55020.000000  0      -1427017.999      -6808583.516        614351.349
10 0 59483  55080.000000  0      -1502886.561      -6736228.402       1060190.455
10 0 59483  55140.000000  0      -1571684.545      -6634954.931       1501545.281
10 0 59483  55200.000000  0      -1632870.707      -6505246.705       1936547.739
10 0 59483  55260.000000  0      -1685940.639      -6347712.303       2363356.072
10 0 59483  55320.000000  0      -1730430.010      -6163082.352       2780162.805
10 0 59483  55380.000000  0      -1765917.599      -5952206.041       3185202.531
10 0 59483  55440.000000  0      -1792028.079      -5716047.077       3576759.504
10 0 59483  55500.000000  0      -1808434.549      -5455679.119       3953174.974
10 0 59483  55560.000000  0      -1814860.820      -5172280.708       4312854.218
10 0 59483  55620.000000  0      -1811083.469      -4867129.812       4654273.283
10 0 59483  55680.000000  0      -1796933.623      -4541597.930       4975985.451
10 0 59483  55740.000000  0      -1772298.461      -4197143.773       5276627.392
10 0 59483  55800.000000  0      -1737122.403      -3835306.494       5554924.944
10 0 59483  55860.000000  0      -1691407.975      -3457698.592       5809698.378
10 0 59483  55920.000000  0      -1635216.360      -3065998.591       6039867.262
10 0 59483  55980.000000  0      -1568667.637      -2661943.480       6244454.890
10 0 59483  56040.000000  0      -1491940.737      -2247320.988       6422592.283
10 0 59483  56100.000000  0      -1405273.096      -1823961.668       6573521.827
10 0 59483  56160.000000  0      -1308960.032      -1393730.755       6696600.441
10 0 59483  56220.000000  0      -1203353.816       -958519.880       6791302.232
10 0 59483  56280.000000  0      -1088862.463       -520238.745       6857220.635
10 0 59483  56340.000000  0       -965948.214        -80806.817       6894070.130
10 0 59483  56400.000000  0       -835125.706        357855.051       6901687.573
10 0 59483  56460.000000  0       -696959.844        793833.049       6880032.992
10 0 59483  56520.000000  0       -552063.372       1225228.784       6829189.868
10 0 59483  56580.000000  0       -401094.192       1650167.558       6749364.940
10 0 59483  56640.000000  0       -244752.406       2066806.593       6640887.519
10 0 59483  56700.000000  0        -83777.092       2473343.080       6504208.258
10 0 59483  56760.000000  0         81057.125       2868022.023       6339897.497
10 0 59483  56820.000000  0        248943.734       3249143.981       6148643.139
10 0 59483  56880.000000  0        419048.207       3615072.586       5931247.976
10 0 59483  56940.000000  0        590512.089       3964241.781       5688626.533
10 0 59483  57000.000000  0        762457.261       4295162.742       5421801.438
10 0 59483  57060.000000  0        933990.391       4606430.539       5131899.343
10 0 59483  57120.000000  0       1104207.516       4896730.458       4820146.299
10 0 59483  57180.000000  0       1272198.729       5164843.858       4487862.634
10 0 59483  57240.000000  0       1437052.910       5409653.554       4136457.512
10 0 59483  57300.000000  0       1597862.552       5630148.843       3767423.172
10 0 59483  57360.000000  0       1753728.829       5825430.239       3382328.727
10 0 59483  57420.000000  0       1903766.630       5994713.551       2982813.117
10 0 59483  57480.000000  0       2047109.279       6137333.223       2570577.975
10 0 59483  57540.000000  0       2182913.420       6252745.317       2147380.300
99
